{"type": "FeatureCollection", "features": [ {"type": "Feature", "properties": {"norad_id": 32260, "name": "GPS BIIRM-4 (PRN 15)", "group": "gnss", "lat": 34.32038972821244, "lon": 117.14539042645046, "alt_km": 19846.884206246097, "timestamp": "2025-12-21T18:54:58.738591+00:00", "meta": {"OBJECT_NAME": "GPS BIIRM-4 (PRN 15)", "OBJECT_ID": "2007-047A", "EPOCH": "2025-12-19T17:36:20.095488", "MEAN_MOTION": 2.00564284, "ECCENTRICITY": 0.01640625, "INCLINATION": 53.9598, "RA_OF_ASC_NODE": 87.4696, "ARG_OF_PERICENTER": 85.3303, "MEAN_ANOMALY": 276.5412, "EPHEMERIS_TYPE": 0, "CLASSIFICATION_TYPE": "U", "NORAD_CAT_ID": 32260, "ELEMENT_SET_NO": 999, "REV_AT_EPOCH": 13321, "BSTAR": 0, "MEAN_MOTION_DOT": -3.5e-07, "MEAN_MOTION_DDOT": 0}, "tle": {"line1": "1 32260U 07047A   25353.73356592 -.00000035  00000+0  00000+0 0  9996", "line2": "2 32260  53.9598  87.4696 0164062  85.3303 276.5412  2.00564284133213"}}, "geometry": {"type": "Point", "coordinates": [117.14539042645046, 34.32038972821244]}}, {"type": "Feature", "properties": {"norad_id": 32275, "name": "COSMOS 2433 (720)", "group": "gnss", "lat": -12.186947460376436, "lon": 147.48684524501195, "alt_km": 19125.64739440068, "timestamp": "2025-12-21T18:54:58.738603+00:00", "meta": {"OBJECT_NAME": "COSMOS 2433 (720)", "OBJECT_ID": "2007-052A", "EPOCH": "2025-12-21T01:36:08.610912", "MEAN_MOTION": 2.13104226, "ECCENTRICITY": 0.00051868, "INCLINATION": 65.6786, "RA_OF_ASC_NODE": 321.9257, "ARG_OF_PERICENTER": 255.4545, "MEAN_ANOMALY": 104.4812, "EPHEMERIS_TYPE": 0, "CLASSIFICATION_TYPE": "U", "NORAD_CAT_ID": 32275, "ELEMENT_SET_NO": 999, "REV_AT_EPOCH": 14126, "BSTAR": 0, "MEAN_MOTION_DOT": -4.8e-07, "MEAN_MOTION_DDOT": 0}, "tle": {"line1": "1 32275U 07052A   25355.06676633 -.00000048  00000+0  00000+0 0  9991", "line2": "2 32275  65.6786 321.9257 0005186 255.4545 104.4812  2.13104226141263"}}, "geometry": {"type": "Point", "coordinates": [147.48684524501195, -12.186947460376436]}}, {"type": "Feature", "properties": {"norad_id": 32276, "name": "COSMOS 2432 (719)", "group": "gnss", "lat": 37.68618908837544, "lon": 121.58628670728433, "alt_km": 19154.363491796612, "timestamp": "2025-12-21T18:54:58.738615+00:00", "meta": {"OBJECT_NAME": "COSMOS 2432 (719)", "OBJECT_ID": "2007-052B", "EPOCH": "2025-12-21T05:56:02.961600", "MEAN_MOTION": 2.13103424, "ECCENTRICITY": 0.00113369, "INCLINATION": 65.6945, "RA_OF_ASC_NODE": 322.044, "ARG_OF_PERICENTER": 314.296, "MEAN_ANOMALY": 128.5462, "EPHEMERIS_TYPE": 0, "CLASSIFICATION_TYPE": "U", "NORAD_CAT_ID": 32276, "ELEMENT_SET_NO": 999, "REV_AT_EPOCH": 14129, "BSTAR": 0, "MEAN_MOTION_DOT": -4.7e-07, "MEAN_MOTION_DDOT": 0}, "tle": {"line1": "1 32276U 07052B   25355.24725650 -.00000047  00000+0  00000+0 0  9995", "line2": "2 32276  65.6945 322.0440 0011336 314.2960 128.5462  2.13103424141296"}}, "geometry": {"type": "Point", "coordinates": [121.58628670728433, 37.68618908837544]}}, {"type": "Feature", "properties": {"norad_id": 32384, "name": "GPS BIIRM-5 (PRN 29)", "group": "gnss", "lat": 3.9977231477194675, "lon": 98.48694044949097, "alt_km": 20097.010742070754, "timestamp": "2025-12-21T18:54:58.738628+00:00", "meta": {"OBJECT_NAME": "GPS BIIRM-5 (PRN 29)", "OBJECT_ID": "2007-062A", "EPOCH": "2025-12-19T04:08:10.010976", "MEAN_MOTION": 2.00577702, "ECCENTRICITY": 0.00322663, "INCLINATION": 55.1765, "RA_OF_ASC_NODE": 281.388, "ARG_OF_PERICENTER": 162.2119, "MEAN_ANOMALY": 283.9132, "EPHEMERIS_TYPE": 0, "CLASSIFICATION_TYPE": "U", "NORAD_CAT_ID": 32384, "ELEMENT_SET_NO": 999, "REV_AT_EPOCH": 13190, "BSTAR": 0, "MEAN_MOTION_DOT": -3.8e-07, "MEAN_MOTION_DDOT": 0}, "tle": {"line1": "1 32384U 07062A   25353.17233809 -.00000038  00000+0  00000+0 0  9996", "line2": "2 32384  55.1765 281.3880 0032266 162.2119 283.9132  2.00577702131904"}}, "geometry": {"type": "Point", "coordinates": [98.48694044949097, 3.9977231477194675]}}, {"type": "Feature", "properties": {"norad_id": 32393, "name": "COSMOS 2434 (721)", "group": "gnss", "lat": 63.632315792988656, "lon": -85.83532922586377, "alt_km": 19111.03772418919, "timestamp": "2025-12-21T18:54:58.738639+00:00", "meta": {"OBJECT_NAME": "COSMOS 2434 (721)", "OBJECT_ID": "2007-065A", "EPOCH": "2025-12-21T09:39:23.764896", "MEAN_MOTION": 2.13101489, "ECCENTRICITY": 0.00048181, "INCLINATION": 64.3157, "RA_OF_ASC_NODE": 197.9109, "ARG_OF_PERICENTER": 72.3225, "MEAN_ANOMALY": 75.6648, "EPHEMERIS_TYPE": 0, "CLASSIFICATION_TYPE": "U", "NORAD_CAT_ID": 32393, "ELEMENT_SET_NO": 999, "REV_AT_EPOCH": 13998, "BSTAR": 0, "MEAN_MOTION_DOT": 9.7e-07, "MEAN_MOTION_DDOT": 0}, "tle": {"line1": "1 32393U 07065A   25355.40235839  .00000097  00000+0  00000+0 0  9996", "line2": "2 32393  64.3157 197.9109 0004818  72.3225  75.6648  2.13101489139981"}}, "geometry": {"type": "Point", "coordinates": [-85.83532922586377, 63.632315792988656]}}, {"type": "Feature", "properties": {"norad_id": 32395, "name": "COSMOS 2436 (723)", "group": "gnss", "lat": -32.760072541874344, "lon": 36.01564047031497, "alt_km": 19174.94676176094, "timestamp": "2025-12-21T18:54:58.738651+00:00", "meta": {"OBJECT_NAME": "COSMOS 2436 (723)", "OBJECT_ID": "2007-065C", "EPOCH": "2025-12-21T12:09:56.983392", "MEAN_MOTION": 2.13100253, "ECCENTRICITY": 0.00178045, "INCLINATION": 64.3244, "RA_OF_ASC_NODE": 197.9777, "ARG_OF_PERICENTER": 10.1556, "MEAN_ANOMALY": 351.0795, "EPHEMERIS_TYPE": 0, "CLASSIFICATION_TYPE": "U", "NORAD_CAT_ID": 32395, "ELEMENT_SET_NO": 999, "REV_AT_EPOCH": 13994, "BSTAR": 0, "MEAN_MOTION_DOT": 9.6e-07, "MEAN_MOTION_DDOT": 0}, "tle": {"line1": "1 32395U 07065C   25355.50690953  .00000096  00000+0  00000+0 0  9990", "line2": "2 32395  64.3244 197.9777 0017804  10.1556 351.0795  2.13100253139945"}}, "geometry": {"type": "Point", "coordinates": [36.01564047031497, -32.760072541874344]}}, {"type": "Feature", "properties": {"norad_id": 32711, "name": "GPS BIIRM-6 (PRN 07)", "group": "gnss", "lat": 53.71458737034244, "lon": -99.71334682674848, "alt_km": 20625.31429726484, "timestamp": "2025-12-21T18:54:58.738663+00:00", "meta": {"OBJECT_NAME": "GPS BIIRM-6 (PRN 07)", "OBJECT_ID": "2008-012A", "EPOCH": "2025-12-19T15:41:26.858112", "MEAN_MOTION": 2.00565937, "ECCENTRICITY": 0.0202735, "INCLINATION": 54.4779, "RA_OF_ASC_NODE": 157.0969, "ARG_OF_PERICENTER": 245.0276, "MEAN_ANOMALY": 112.8468, "EPHEMERIS_TYPE": 0, "CLASSIFICATION_TYPE": "U", "NORAD_CAT_ID": 32711, "ELEMENT_SET_NO": 999, "REV_AT_EPOCH": 13015, "BSTAR": 0, "MEAN_MOTION_DOT": 6.7e-07, "MEAN_MOTION_DDOT": 0}, "tle": {"line1": "1 32711U 08012A   25353.65378308  .00000067  00000+0  00000+0 0  9994", "line2": "2 32711  54.4779 157.0969 0202735 245.0276 112.8468  2.00565937130151"}}, "geometry": {"type": "Point", "coordinates": [-99.71334682674848, 53.71458737034244]}}, {"type": "Feature", "properties": {"norad_id": 35752, "name": "GPS BIIRM-8 (PRN 05)", "group": "gnss", "lat": 46.37651739416613, "lon": 169.5955614912389, "alt_km": 20067.264547930798, "timestamp": "2025-12-21T18:54:58.738675+00:00", "meta": {"OBJECT_NAME": "GPS BIIRM-8 (PRN 05)", "OBJECT_ID": "2009-043A", "EPOCH": "2025-12-20T02:09:52.509312", "MEAN_MOTION": 2.00565329, "ECCENTRICITY": 0.00516467, "INCLINATION": 56.096, "RA_OF_ASC_NODE": 34.4932, "ARG_OF_PERICENTER": 81.7821, "MEAN_ANOMALY": 251.1308, "EPHEMERIS_TYPE": 0, "CLASSIFICATION_TYPE": "U", "NORAD_CAT_ID": 35752, "ELEMENT_SET_NO": 999, "REV_AT_EPOCH": 11976, "BSTAR": 0, "MEAN_MOTION_DOT": -6.1e-07, "MEAN_MOTION_DDOT": 0}, "tle": {"line1": "1 35752U 09043A   25354.09019108 -.00000061  00000+0  00000+0 0  9991", "line2": "2 35752  56.0960  34.4932 0051646  81.7821 251.1308  2.00565329119760"}}, "geometry": {"type": "Point", "coordinates": [169.5955614912389, 46.37651739416613]}}, {"type": "Feature", "properties": {"norad_id": 36111, "name": "COSMOS 2456 (730)", "group": "gnss", "lat": -52.44937075418903, "lon": -65.47022706858398, "alt_km": 19130.980800050456, "timestamp": "2025-12-21T18:54:58.738686+00:00", "meta": {"OBJECT_NAME": "COSMOS 2456 (730)", "OBJECT_ID": "2009-070A", "EPOCH": "2025-12-20T03:13:18.516576", "MEAN_MOTION": 2.13103685, "ECCENTRICITY": 0.00033011, "INCLINATION": 64.904, "RA_OF_ASC_NODE": 77.0852, "ARG_OF_PERICENTER": 296.9564, "MEAN_ANOMALY": 115.2996, "EPHEMERIS_TYPE": 0, "CLASSIFICATION_TYPE": "U", "NORAD_CAT_ID": 36111, "ELEMENT_SET_NO": 999, "REV_AT_EPOCH": 12461, "BSTAR": 0, "MEAN_MOTION_DOT": -2.2e-07, "MEAN_MOTION_DDOT": 0}, "tle": {"line1": "1 36111U 09070A   25354.13424209 -.00000022  00000+0  00000+0 0  9995", "line2": "2 36111  64.9040  77.0852 0003301 296.9564 115.2996  2.13103685124610"}}, "geometry": {"type": "Point", "coordinates": [-65.47022706858398, -52.44937075418903]}}, {"type": "Feature", "properties": {"norad_id": 36112, "name": "COSMOS 2457 (733)", "group": "gnss", "lat": 9.136744335928352, "lon": 81.20829904157236, "alt_km": 19139.547082514615, "timestamp": "2025-12-21T18:54:58.738697+00:00", "meta": {"OBJECT_NAME": "COSMOS 2457 (733)", "OBJECT_ID": "2009-070B", "EPOCH": "2025-12-21T08:40:21.763200", "MEAN_MOTION": 2.13101117, "ECCENTRICITY": 0.00045367, "INCLINATION": 64.8902, "RA_OF_ASC_NODE": 76.8905, "ARG_OF_PERICENTER": 162.3214, "MEAN_ANOMALY": 240.4067, "EPHEMERIS_TYPE": 0, "CLASSIFICATION_TYPE": "U", "NORAD_CAT_ID": 36112, "ELEMENT_SET_NO": 999, "REV_AT_EPOCH": 12464, "BSTAR": 0, "MEAN_MOTION_DOT": -1.1e-07, "MEAN_MOTION_DDOT": 0}, "tle": {"line1": "1 36112U 09070B   25355.36136300 -.00000011  00000+0  00000+0 0  9992", "line2": "2 36112  64.8902  76.8905 0004536 162.3214 240.4067  2.13101117124643"}}, "geometry": {"type": "Point", "coordinates": [81.20829904157236, 9.136744335928352]}}]}